OBJECT_NAME,OBJECT_ID,EPOCH,MEAN_MOTION,ECCENTRICITY,INCLINATION,RA_OF_ASC_NODE,ARG_OF_PERICENTER,MEAN_ANOMALY,EPHEMERIS_TYPE,CLASSIFICATION_TYPE,NORAD_CAT_ID,ELEMENT_SET_NO,REV_AT_EPOCH,BSTAR,MEAN_MOTION_DOT,MEAN_MOTION_DDOT
STARLINK-34445,2025-130V,2026-06-18T11:27:22.150080,15.34402902,.0001039,53.1606,339.0013,86.8351,273.2770,0,U,64457,999,5615,.55041E-3,.18267E-3,0
STARLINK-34439,2025-130W,2026-06-18T10:53:48.293952,15.30238492,.0001064,53.1614,340.2718,84.7368,275.3754,0,U,64458,999,5613,.91855E-3,.26977E-3,0
STARLINK-34421,2025-130X,2026-06-18T11:12:13.541760,15.34379246,.0001438,53.1610,338.9376,89.2328,270.8840,0,U,64459,999,5615,.55507E-3,.18411E-3,0
STARLINK-34423,2025-130Y,2026-06-18T15:26:51.861984,15.30210128,.0000838,53.1599,339.3202,44.3264,315.7803,0,U,64460,999,5616,.73977E-3,.21621E-3,0
STARLINK-34418,2025-130Z,2026-06-18T16:32:12.307776,15.30209331,.0000738,53.1596,339.6016,92.2835,267.8250,0,U,64461,999,5616,.49212E-3,.14248E-3,0
STARLINK-34336,2025-130AA,2026-06-17T21:13:56.081568,15.31711818,.00010808,53.1614,345.1846,93.6650,266.4475,0,U,64462,999,5601,.71830451E-3,.21999E-3,0
STARLINK-34400,2025-130AB,2026-06-18T16:41:50.144064,15.31713137,.0000839,53.1598,341.7770,69.4091,290.7001,0,U,64463,999,5613,.12165E-2,.3759E-3,0
STARLINK-34429,2025-130AC,2026-06-18T08:07:41.051712,15.34414866,.0001397,53.1601,339.5549,55.3042,304.8092,0,U,64464,999,5613,.10435E-2,.35061E-3,0
STARLINK-34449,2025-130AD,2026-06-18T15:17:22.696800,15.34406267,.000168,53.1594,338.5654,125.5305,234.5855,0,U,64465,999,5617,.64003E-3,.21314E-3,0
COSMOS 2589,2025-131A,2026-06-17T18:59:05.174304,1.00272159,.0000163,0.0368,81.6800,32.8632,174.2407,0,U,64467,999,356,0,-.296E-5,0
CHINASAT 9C,2025-132A,2026-06-18T16:57:19.839168,1.00268767,.0002694,0.0157,64.4026,20.0395,169.0021,0,U,64470,999,416,0,-.253E-5,0
STARLINK-34493,2025-133A,2026-06-18T12:36:31.890240,15.30197971,.0001593,53.1582,8.6564,89.3211,270.7973,0,U,64472,999,5662,.66636E-3,.19427E-3,0
STARLINK-34492,2025-133B,2026-06-17T23:59:32.302752,15.30212733,.00009489,53.1581,11.0613,103.6765,256.4342,0,U,64473,999,5654,.4387119E-3,.12662E-3,0
STARLINK-34474,2025-133C,2026-06-18T12:27:24.668064,15.30197487,.0001313,53.1580,8.6117,101.6048,258.5101,0,U,64474,999,5660,.39023E-3,.11215E-3,0
STARLINK-34523,2025-133D,2026-06-17T20:00:23.428800,15.34417128,.00008333,53.1589,8.6108,68.2833,291.8258,0,U,64475,999,5654,.83457814E-3,.27942E-3,0
STARLINK-34496,2025-133E,2026-06-18T13:06:05.260608,15.34388090,.0001528,53.1597,5.2297,106.2125,253.9045,0,U,64476,999,5666,.58622E-3,.19474E-3,0
STARLINK-34375,2025-133F,2026-06-18T06:41:48.794208,15.34399667,.0001078,53.1603,6.4107,92.7261,267.3865,0,U,64477,999,5663,.73705E-3,.24608E-3,0
STARLINK-34490,2025-133G,2026-06-18T07:02:42.669024,15.30227941,.0001172,53.1607,9.3385,70.9320,289.1807,0,U,64478,999,5659,.4831E-3,.13988E-3,0
STARLINK-34528,2025-133H,2026-06-18T06:38:47.036256,15.34397440,.000131,53.1603,6.3939,94.2022,265.9130,0,U,64479,999,5661,.39769E-3,.13083E-3,0
STARLINK-34518,2025-133J,2026-06-17T19:59:46.421088,15.30208073,.00012551,53.1618,11.4418,81.9043,278.2101,0,U,64480,999,5636,.57535207E-3,.16724E-3,0
STARLINK-34526,2025-133K,2026-06-18T13:09:47.955744,15.30206328,.0001515,53.1620,8.0871,84.9927,275.1246,0,U,64481,999,5652,.63865E-3,.18607E-3,0
STARLINK-34527,2025-133L,2026-06-17T21:15:35.396640,15.30219963,.00012148,53.1601,11.0611,71.0625,289.0507,0,U,64482,999,5653,.67820911E-3,.19793E-3,0
STARLINK-34420,2025-133M,2026-06-17T22:40:31.524384,15.30205873,.00013507,53.1609,10.7155,76.3383,283.7768,0,U,64483,999,5654,.33148311E-3,.9473E-4,0
STARLINK-34509,2025-133N,2026-06-17T22:36:07.700256,15.30208539,.00012573,53.1601,11.4066,84.7223,275.3921,0,U,64484,999,5653,.28654739E-3,.8139E-4,0
STARLINK-34409,2025-133P,2026-06-18T18:00:02.000160,15.33529125,.0001178,53.1594,7.6000,86.9747,74.2376,0,U,64485,999,587,-.35099E-3,-.1189E-3,0
STARLINK-34520,2025-133Q,2026-06-17T22:28:31.794240,15.30206139,.00017128,53.1591,11.3720,90.3143,269.8054,0,U,64486,999,5653,.84722008E-3,.24822E-3,0
STARLINK-34477,2025-133R,2026-06-17T23:58:01.281216,15.30211484,.00011407,53.1585,11.0509,110.1510,249.9614,0,U,64487,999,5653,.44792472E-3,.12935E-3,0
STARLINK-34217,2025-133S,2026-06-18T12:25:53.014080,15.30213205,.0001509,53.1605,8.6016,132.4154,227.6975,0,U,64488,999,5651,.37793E-3,.10855E-3,0
STARLINK-34307,2025-133T,2026-06-17T23:48:54.137664,15.30214198,.00010487,53.1586,11.0091,99.4856,260.6263,0,U,64489,999,5652,.46671021E-3,.13495E-3,0
STARLINK-34505,2025-133U,2026-06-17T20:36:14.342112,15.30205988,.00011624,53.1592,11.5945,94.7861,265.3273,0,U,64490,999,5650,.36814827E-3,.10562E-3,0
