STARLINK-34445          
1 64457U 25130V   26169.47733970  .00018267  00000+0  55041-3 0  9992
2 64457  53.1606 339.0013 0001039  86.8351 273.2770 15.34402902 56157
STARLINK-34439          
1 64458U 25130W   26169.45403118  .00026977  00000+0  91855-3 0  9999
2 64458  53.1614 340.2718 0001064  84.7368 275.3754 15.30238492 56136
STARLINK-34421          
1 64459U 25130X   26169.46682340  .00018411  00000+0  55507-3 0  9995
2 64459  53.1610 338.9376 0001438  89.2328 270.8840 15.34379246 56153
STARLINK-34423          
1 64460U 25130Y   26169.64365581  .00021621  00000+0  73977-3 0  9990
2 64460  53.1599 339.3202 0000838  44.3264 315.7803 15.30210128 56166
STARLINK-34418          
1 64461U 25130Z   26169.68903134  .00014248  00000+0  49212-3 0  9999
2 64461  53.1596 339.6016 0000738  92.2835 267.8250 15.30209331 56162
STARLINK-34336          
1 64462U 25130AA  26168.88467687  .00021999  00000+0  71830-3 0  9991
2 64462  53.1614 345.1846 0001080  93.6650 266.4475 15.31711818 56015
STARLINK-34400          
1 64463U 25130AB  26169.69571926  .00037590  00000+0  12165-2 0  9993
2 64463  53.1598 341.7770 0000839  69.4091 290.7001 15.31713137 56130
STARLINK-34429          
1 64464U 25130AC  26169.33866958  .00035061  00000+0  10435-2 0  9996
2 64464  53.1601 339.5549 0001397  55.3042 304.8092 15.34414866 56132
STARLINK-34449          
1 64465U 25130AD  26169.63706825  .00021314  00000+0  64003-3 0  9993
2 64465  53.1594 338.5654 0001680 125.5305 234.5855 15.34406267 56173
COSMOS 2589             
1 64467U 25131A   26168.79103211 -.00000296  00000+0  00000+0 0  9992
2 64467   0.0368  81.6800 0000163  32.8632 174.2407  1.00272159  3569
CHINASAT 9C             
1 64470U 25132A   26169.70647962 -.00000253  00000+0  00000+0 0  9998
2 64470   0.0157  64.4026 0002694  20.0395 169.0021  1.00268767  4165
STARLINK-34493          
1 64472U 25133A   26169.52536910  .00019427  00000+0  66636-3 0  9994
2 64472  53.1582   8.6564 0001593  89.3211 270.7973 15.30197971 56627
STARLINK-34492          
1 64473U 25133B   26168.99967943  .00012662  00000+0  43871-3 0  9999
2 64473  53.1581  11.0613 0000948 103.6765 256.4342 15.30212733 56543
STARLINK-34474          
1 64474U 25133C   26169.51903551  .00011215  00000+0  39023-3 0  9991
2 64474  53.1580   8.6117 0001313 101.6048 258.5101 15.30197487 56604
STARLINK-34523          
1 64475U 25133D   26168.83360450  .00027942  00000+0  83458-3 0  9996
2 64475  53.1589   8.6108 0000833  68.2833 291.8258 15.34417128 56547
STARLINK-34496          
1 64476U 25133E   26169.54589422  .00019474  00000+0  58622-3 0  9994
2 64476  53.1597   5.2297 0001528 106.2125 253.9045 15.34388090 56669
STARLINK-34375          
1 64477U 25133F   26169.27903697  .00024608  00000+0  73705-3 0  9993
2 64477  53.1603   6.4107 0001078  92.7261 267.3865 15.34399667 56639
STARLINK-34490          
1 64478U 25133G   26169.29354941  .00013988  00000+0  48310-3 0  9991
2 64478  53.1607   9.3385 0001172  70.9320 289.1807 15.30227941 56597
STARLINK-34528          
1 64479U 25133H   26169.27693329  .00013083  00000+0  39769-3 0  9990
2 64479  53.1603   6.3939 0001310  94.2022 265.9130 15.34397440 56618
STARLINK-34518          
1 64480U 25133J   26168.83317617  .00016724  00000+0  57535-3 0  9992
2 64480  53.1618  11.4418 0001255  81.9043 278.2101 15.30208073 56365
STARLINK-34526          
1 64481U 25133K   26169.54847171  .00018607  00000+0  63865-3 0  9990
2 64481  53.1620   8.0871 0001515  84.9927 275.1246 15.30206328 56522
STARLINK-34527          
1 64482U 25133L   26168.88582635  .00019793  00000+0  67821-3 0  9991
2 64482  53.1601  11.0611 0001214  71.0625 289.0507 15.30219963 56530
STARLINK-34420          
1 64483U 25133M   26168.94480931  .00009473  00000+0  33148-3 0  9994
2 64483  53.1609  10.7155 0001350  76.3383 283.7768 15.30205873 56544
STARLINK-34509          
1 64484U 25133N   26168.94175579  .00008139  00000+0  28655-3 0  9999
2 64484  53.1601  11.4066 0001257  84.7223 275.3921 15.30208539 56537
STARLINK-34409          
1 64485U 25133P   26169.75002315 -.00011890  00000+0 -35099-3 0  9997
2 64485  53.1594   7.6000 0001178  86.9747  74.2376 15.33529125  5872
STARLINK-34520          
1 64486U 25133Q   26168.93647910  .00024822  00000+0  84722-3 0  9997
2 64486  53.1591  11.3720 0001712  90.3143 269.8054 15.30206139 56532
STARLINK-34477          
1 64487U 25133R   26168.99862594  .00012935  00000+0  44792-3 0  9996
2 64487  53.1585  11.0509 0001140 110.1510 249.9614 15.30211484 56532
STARLINK-34217          
1 64488U 25133S   26169.51797470  .00010855  00000+0  37793-3 0  9998
2 64488  53.1605   8.6016 0001509 132.4154 227.6975 15.30213205 56515
STARLINK-34307          
1 64489U 25133T   26168.99229326  .00013495  00000+0  46671-3 0  9998
2 64489  53.1586  11.0091 0001048  99.4856 260.6263 15.30214198 56524
STARLINK-34505          
1 64490U 25133U   26168.85849933  .00010562  00000+0  36815-3 0  9998
2 64490  53.1592  11.5945 0001162  94.7861 265.3273 15.30205988 56505
